{
  "type": "FeatureCollection",
  "features": [
    {
      "type": "Feature",
      "properties": {
        "norad_id": 30080,
        "name": "FENGYUN 1C DEB",
        "group": "fengyun-1c-debris",
        "lat": -81.23207853332062,
        "lon": 70.19417946689107,
        "alt_km": 930.7249683524078,
        "timestamp": "2025-12-18T21:31:51.275276+00:00",
        "meta_object_name": "FENGYUN 1C DEB",
        "meta_object_id": "1999-025QH",
        "meta_epoch": "2025-12-18T05:01:14.786688",
        "meta_mean_motion": 14.10827809,
        "meta_eccentricity": 0.01336674,
        "meta_inclination": 98.6987,
        "meta_ra_of_asc_node": 332.5575,
        "meta_arg_of_pericenter": 45.1661,
        "meta_mean_anomaly": 332.8846,
        "meta_ephemeris_type": 0,
        "meta_classification_type": "U",
        "meta_norad_cat_id": 30080,
        "meta_element_set_no": 999,
        "meta_rev_at_epoch": 97315,
        "meta_bstar": 0.00023150728,
        "meta_mean_motion_dot": 4.09e-06,
        "meta_mean_motion_ddot": 0,
        "tle_line1": "1 30080U 99025QH  25352.20919892  .00000409  00000+0  23151-3 0  9990",
        "tle_line2": "2 30080  98.6987 332.5575 0133667  45.1661 332.8846 14.10827809973158"
      },
      "geometry": {
        "type": "Point",
        "coordinates": [
          70.19417946689107,
          -81.23207853332062
        ]
      }
    },
    {
      "type": "Feature",
      "properties": {
        "norad_id": 30081,
        "name": "FENGYUN 1C DEB",
        "group": "fengyun-1c-debris",
        "lat": -8.06566477130311,
        "lon": 167.7250222321833,
        "alt_km": 941.8231406008708,
        "timestamp": "2025-12-18T21:31:51.275286+00:00",
        "meta_object_name": "FENGYUN 1C DEB",
        "meta_object_id": "1999-025QJ",
        "meta_epoch": "2025-12-17T22:35:55.010688",
        "meta_mean_motion": 13.9828631,
        "meta_eccentricity": 0.00758031,
        "meta_inclination": 98.9231,
        "meta_ra_of_asc_node": 348.0715,
        "meta_arg_of_pericenter": 324.8457,
        "meta_mean_anomaly": 96.5776,
        "meta_ephemeris_type": 0,
        "meta_classification_type": "U",
        "meta_norad_cat_id": 30081,
        "meta_element_set_no": 999,
        "meta_rev_at_epoch": 96427,
        "meta_bstar": 0.00049721125,
        "meta_mean_motion_dot": 6.83e-06,
        "meta_mean_motion_ddot": 0,
        "tle_line1": "1 30081U 99025QJ  25351.94160892  .00000683  00000+0  49721-3 0  9994",
        "tle_line2": "2 30081  98.9231 348.0715 0075803 324.8457  96.5776 13.98286310964279"
      },
      "geometry": {
        "type": "Point",
        "coordinates": [
          167.7250222321833,
          -8.06566477130311
        ]
      }
    },
    {
      "type": "Feature",
      "properties": {
        "norad_id": 30082,
        "name": "FENGYUN 1C DEB",
        "group": "fengyun-1c-debris",
        "lat": 37.107100593175595,
        "lon": 108.36667954066255,
        "alt_km": 468.95926889572,
        "timestamp": "2025-12-18T21:31:51.275296+00:00",
        "meta_object_name": "FENGYUN 1C DEB",
        "meta_object_id": "1999-025QK",
        "meta_epoch": "2025-12-18T06:38:38.652864",
        "meta_mean_motion": 15.15351404,
        "meta_eccentricity": 0.00700683,
        "meta_inclination": 98.8189,
        "meta_ra_of_asc_node": 280.9027,
        "meta_arg_of_pericenter": 147.7943,
        "meta_mean_anomaly": 212.7594,
        "meta_ephemeris_type": 0,
        "meta_classification_type": "U",
        "meta_norad_cat_id": 30082,
        "meta_element_set_no": 999,
        "meta_rev_at_epoch": 1377,
        "meta_bstar": 0.0010258209,
        "meta_mean_motion_dot": 0.00020538,
        "meta_mean_motion_ddot": 0,
        "tle_line1": "1 30082U 99025QK  25352.27683626  .00020538  00000+0  10258-2 0  9990",
        "tle_line2": "2 30082  98.8189 280.9027 0070068 147.7943 212.7594 15.15351404 13779"
      },
      "geometry": {
        "type": "Point",
        "coordinates": [
          108.36667954066255,
          37.107100593175595
        ]
      }
    },
    {
      "type": "Feature",
      "properties": {
        "norad_id": 30086,
        "name": "FENGYUN 1C DEB",
        "group": "fengyun-1c-debris",
        "lat": 76.55410318810034,
        "lon": -112.53536828946564,
        "alt_km": 830.4091542505585,
        "timestamp": "2025-12-18T21:31:51.275307+00:00",
        "meta_object_name": "FENGYUN 1C DEB",
        "meta_object_id": "1999-025QP",
        "meta_epoch": "2025-12-17T16:33:42.816960",
        "meta_mean_motion": 14.03837075,
        "meta_eccentricity": 0.0061864,
        "meta_inclination": 98.91,
        "meta_ra_of_asc_node": 25.2746,
        "meta_arg_of_pericenter": 120.9199,
        "meta_mean_anomaly": 2.5737,
        "meta_ephemeris_type": 0,
        "meta_classification_type": "U",
        "meta_norad_cat_id": 30086,
        "meta_element_set_no": 999,
        "meta_rev_at_epoch": 96765,
        "meta_bstar": 0.00050765237,
        "meta_mean_motion_dot": 7.71e-06,
        "meta_mean_motion_ddot": 0,
        "tle_line1": "1 30086U 99025QP  25351.69007890  .00000771  00000+0  50765-3 0  9997",
        "tle_line2": "2 30086  98.9100  25.2746 0061864 120.9199   2.5737 14.03837075967653"
      },
      "geometry": {
        "type": "Point",
        "coordinates": [
          -112.53536828946564,
          76.55410318810034
        ]
      }
    },
    {
      "type": "Feature",
      "properties": {
        "norad_id": 30087,
        "name": "FENGYUN 1C DEB",
        "group": "fengyun-1c-debris",
        "lat": -11.008235803222538,
        "lon": 26.616540924997615,
        "alt_km": 840.9639440702058,
        "timestamp": "2025-12-18T21:31:51.275317+00:00",
        "meta_object_name": "FENGYUN 1C DEB",
        "meta_object_id": "1999-025QQ",
        "meta_epoch": "2025-12-18T01:45:38.570112",
        "meta_mean_motion": 14.35712869,
        "meta_eccentricity": 0.02304069,
        "meta_inclination": 98.3797,
        "meta_ra_of_asc_node": 24.1722,
        "meta_arg_of_pericenter": 105.5139,
        "meta_mean_anomaly": 310.713,
        "meta_ephemeris_type": 0,
        "meta_classification_type": "U",
        "meta_norad_cat_id": 30087,
        "meta_element_set_no": 999,
        "meta_rev_at_epoch": 98772,
        "meta_bstar": 0.0001970205,
        "meta_mean_motion_dot": 7.22e-06,
        "meta_mean_motion_ddot": 0,
        "tle_line1": "1 30087U 99025QQ  25352.07336308  .00000722  00000+0  19702-3 0  9992",
        "tle_line2": "2 30087  98.3797  24.1722 0230406 105.5139 310.7130 14.35712869987724"
      },
      "geometry": {
        "type": "Point",
        "coordinates": [
          26.616540924997615,
          -11.008235803222538
        ]
      }
    },
    {
      "type": "Feature",
      "properties": {
        "norad_id": 30088,
        "name": "FENGYUN 1C DEB",
        "group": "fengyun-1c-debris",
        "lat": -72.88763334690209,
        "lon": 128.48165535119412,
        "alt_km": 649.6461342890343,
        "timestamp": "2025-12-18T21:31:51.275328+00:00",
        "meta_object_name": "FENGYUN 1C DEB",
        "meta_object_id": "1999-025QR",
        "meta_epoch": "2025-12-18T05:23:19.473216",
        "meta_mean_motion": 14.35924215,
        "meta_eccentricity": 0.02008486,
        "meta_inclination": 98.3547,
        "meta_ra_of_asc_node": 336.3396,
        "meta_arg_of_pericenter": 230.9871,
        "meta_mean_anomaly": 148.1679,
        "meta_ephemeris_type": 0,
        "meta_classification_type": "U",
        "meta_norad_cat_id": 30088,
        "meta_element_set_no": 999,
        "meta_rev_at_epoch": 98751,
        "meta_bstar": 0.00026157984,
        "meta_mean_motion_dot": 9.04e-06,
        "meta_mean_motion_ddot": 0,
        "tle_line1": "1 30088U 99025QR  25352.22453094  .00000904  00000+0  26158-3 0  9997",
        "tle_line2": "2 30088  98.3547 336.3396 0200848 230.9871 148.1679 14.35924215987514"
      },
      "geometry": {
        "type": "Point",
        "coordinates": [
          128.48165535119412,
          -72.88763334690209
        ]
      }
    },
    {
      "type": "Feature",
      "properties": {
        "norad_id": 30089,
        "name": "FENGYUN 1C DEB",
        "group": "fengyun-1c-debris",
        "lat": 18.15169571127161,
        "lon": 81.3798793358291,
        "alt_km": 745.4033544726626,
        "timestamp": "2025-12-18T21:31:51.275338+00:00",
        "meta_object_name": "FENGYUN 1C DEB",
        "meta_object_id": "1999-025QS",
        "meta_epoch": "2025-12-18T04:44:02.075136",
        "meta_mean_motion": 14.30311716,
        "meta_eccentricity": 0.00735186,
        "meta_inclination": 98.9035,
        "meta_ra_of_asc_node": 257.718,
        "meta_arg_of_pericenter": 193.9199,
        "meta_mean_anomaly": 326.3098,
        "meta_ephemeris_type": 0,
        "meta_classification_type": "U",
        "meta_norad_cat_id": 30089,
        "meta_element_set_no": 999,
        "meta_rev_at_epoch": 98557,
        "meta_bstar": 0.0001760239,
        "meta_mean_motion_dot": 4.24e-06,
        "meta_mean_motion_ddot": 0,
        "tle_line1": "1 30089U 99025QS  25352.19724624  .00000424  00000+0  17602-3 0  9995",
        "tle_line2": "2 30089  98.9035 257.7180 0073518 193.9199 326.3098 14.30311716985573"
      },
      "geometry": {
        "type": "Point",
        "coordinates": [
          81.3798793358291,
          18.15169571127161
        ]
      }
    }
  ]
}